{"fetched_at":"2026-03-29T16:36:15Z","count":15609,"tles":[{"name":"STARLINK-30566","line1":"1 58054U 23158D   26087.85928328 -.00065904  00000+0 -24096-2 0  9997","line2":"2 58054  43.0006 278.6275 0001492 269.3510  90.7171 15.27540162136509","category":"Starlink"}]}