{
  "norad_id": 58054,
  "name": "STARLINK-30566",
  "history": [
    {
      "epoch": "2026-03-28T20:37:22.075392Z",
      "apogee_km": 484.19209469970974,
      "perigee_km": 482.14468117194883,
      "latitude_deg": 2.5202053439373322e-05,
      "longitude_deg": 143.0118619172157,
      "height_km": 482.9568273608092,
      "semi_major_axis_km": 6861.305387935829,
      "eccentricity": 0.0001492,
      "inclination_deg": 43.0006,
      "raan_deg": 278.6275,
      "arg_perigee_deg": 269.351,
      "mean_anomaly_deg": 90.7171,
      "mean_motion_rev_day": 15.27540162
    }
  ]
}